OBJECT_NAME,OBJECT_ID,EPOCH,MEAN_MOTION,ECCENTRICITY,INCLINATION,RA_OF_ASC_NODE,ARG_OF_PERICENTER,MEAN_ANOMALY,EPHEMERIS_TYPE,CLASSIFICATION_TYPE,NORAD_CAT_ID,ELEMENT_SET_NO,REV_AT_EPOCH,BSTAR,MEAN_MOTION_DOT,MEAN_MOTION_DDOT
SKYSAT-C1,2016-040C,2026-06-15T01:36:20.410560,15.36271096,.00036534,96.9560,197.9016,62.2193,297.9423,0,U,41601,999,55754,.23958167E-3,.8398E-4,0
LAPAN-A3,2016-040E,2026-06-15T05:35:36.846240,15.33093140,.00111275,97.1485,162.4430,32.3394,327.8529,0,U,41603,999,55451,.96306739E-4,.3009E-4,0
GAOFEN-3,2016-049A,2026-06-15T06:43:24.743136,14.42215631,.00013434,98.4006,174.0947,99.6031,260.5311,0,U,41727,999,51837,.40451334E-4,.9E-6,0
SKYSAT-C4,2016-058B,2026-06-15T00:08:25.653408,15.48527321,.00012301,96.9169,187.8695,129.0648,231.0713,0,U,41771,999,54513,.28950755E-3,.15333E-3,0
SKYSAT-C5,2016-058C,2026-06-15T01:58:35.095296,15.34444981,.00012717,97.0468,206.8165,332.0024,28.1151,0,U,41772,999,54342,.2123923E-3,.7011E-4,0
SKYSAT-C2,2016-058D,2026-06-14T23:42:58.083264,15.42028186,.00048263,97.0164,188.1658,75.3073,284.8709,0,U,41773,999,54471,.27048814E-3,.11467E-3,0
SKYSAT-C3,2016-058E,2026-06-15T01:56:21.467328,15.52461540,.0001586,96.8998,197.0087,91.0062,269.1374,0,U,41774,999,54578,.34346221E-3,.20941E-3,0
ALSAT-1B,2016-059C,2026-06-15T06:27:42.486336,14.72274886,.00079634,97.7745,175.1155,227.6117,132.4417,0,U,41785,999,52029,.10744979E-3,.632E-5,0
PATHFINDER 1,2016-059E,2026-06-15T05:27:42.603552,14.67661044,.00276441,97.8167,165.5923,209.9754,149.9870,0,U,41787,999,51942,.90627473E-4,.471E-5,0
SCATSAT 1,2016-059H,2026-06-15T04:25:28.173504,14.79521638,.00533201,98.1191,229.9297,254.1187,105.4143,0,U,41790,999,10129,.13047562E-3,.941E-5,0
GOKTURK 1A,2016-073A,2026-06-15T06:17:18.671424,14.62773280,.00014418,98.1261,60.9673,76.4083,283.7279,0,U,41875,999,50854,.69521213E-4,.308E-5,0
RESOURCESAT-2A,2016-074A,2026-06-15T05:46:50.469888,14.21616288,.00033351,98.7533,239.7608,87.7148,272.4411,0,U,41877,999,49402,.90922855E-4,.155E-5,0
CARTOSAT-2D,2017-008A,2026-06-15T05:57:42.204096,15.19322282,.00038162,97.4110,225.5905,238.1814,121.9050,0,U,41948,999,51728,.2195447E-3,.457E-4,0
SENTINEL-2B,2017-013A,2026-06-15T05:59:12.355584,14.30816688,.00011764,98.5698,241.0509,87.5190,272.6128,0,U,42063,999,48436,.70611125E-4,.141E-5,0
CARTOSAT-2E,2017-036C,2026-06-15T06:23:21.579072,15.19242550,.00025836,97.4281,226.1001,331.0011,29.1079,0,U,42767,999,49785,.19049537E-3,.3946E-4,0
FORMOSAT-5,2017-049A,2026-06-15T06:14:11.557536,14.50898223,.00126973,98.2254,241.6123,89.6891,270.5759,0,U,42920,999,46639,.45860255E-4,.138E-5,0
SENTINEL-5P,2017-064A,2026-06-15T07:10:12.752544,14.19518700,.00009622,98.7925,108.4434,83.9500,276.1786,0,U,42969,999,44929,.39251166E-4,.38E-6,0
SKYSAT-C11,2017-068A,2026-06-15T07:45:06.111360,15.57808325,.00007091,97.4347,315.0725,84.5767,275.5569,0,U,42987,999,48295,.31600545E-3,.23426E-3,0
SKYSAT-C10,2017-068B,2026-06-14T22:40:46.519104,15.34605921,.0001149,97.4504,302.7699,93.8449,266.2926,0,U,42988,999,48201,.25088E-3,.8332E-4,0
SKYSAT-C9,2017-068C,2026-06-15T06:59:53.228256,15.41520314,.00093347,97.4425,304.0364,138.9580,221.2370,0,U,42989,999,48246,.24874606E-3,.10364E-3,0
SKYSAT-C8,2017-068D,2026-06-15T04:19:26.422752,15.36941663,.00014746,97.4521,302.7996,97.3345,262.8067,0,U,42990,999,48200,.24502333E-3,.8769E-4,0
SKYSAT-C7,2017-068E,2026-06-15T04:10:09.402816,15.36891332,.00072006,97.4532,303.7822,112.3956,247.8052,0,U,42991,999,48206,.24011918E-3,.8584E-4,0
SKYSAT-C6,2017-068F,2026-06-15T07:41:33.324576,15.34182223,.00043505,97.4566,303.9077,142.4657,217.6890,0,U,42992,999,48203,.23730067E-3,.7772E-4,0
CARTOSAT-2F,2018-004A,2026-06-15T07:09:37.560960,15.19203979,.00005847,97.4794,225.9511,226.6650,133.4536,0,U,43111,999,46704,.19961807E-3,.4133E-4,0
GAOFEN-1 02,2018-031A,2026-06-15T06:22:08.266944,14.76454266,.00039259,98.0532,228.7977,38.7794,321.3697,0,U,43259,999,44241,.10955499E-3,.711E-5,0
GAOFEN-1 03,2018-031B,2026-06-15T07:28:17.026752,14.76466580,.00037776,98.0523,228.7023,82.9177,277.2462,0,U,43260,999,44241,.96452221E-4,.62E-5,0
GAOFEN-1 04,2018-031D,2026-06-15T06:53:15.388224,14.76478402,.00022572,98.0534,228.8683,84.1570,275.9897,0,U,43262,999,44240,.14607019E-3,.965E-5,0
SENTINEL-3B,2018-039A,2026-06-15T03:44:33.072576,14.26734175,.00007334,98.6250,233.7173,85.7408,274.3856,0,U,43437,999,42383,.4839466E-4,.73E-6,0
GAOFEN-5 01,2018-043A,2026-06-14T22:30:49.099392,14.60604013,.0003028,98.4568,137.4771,87.2724,272.8822,0,U,43461,999,43136,.67153E-4,.277E-5,0
GAOFEN-6,2018-048A,2026-06-15T05:47:46.546080,14.76595631,.00116784,97.8551,229.0368,173.6930,186.4429,0,U,43484,999,43310,.48901637E-4,.292E-5,0
