SKYSAT-C1               
1 41601U 16040C   26166.06690290  .00008398  00000+0  23958-3 0  9993
2 41601  96.9560 197.9016 0003653  62.2193 297.9423 15.36271096557544
LAPAN-A3                
1 41603U 16040E   26166.23306535  .00003009  00000+0  96307-4 0  9993
2 41603  97.1485 162.4430 0011127  32.3394 327.8529 15.33093140554511
GAOFEN-3                
1 41727U 16049A   26166.28014749  .00000090  00000+0  40451-4 0  9993
2 41727  98.4006 174.0947 0001343  99.6031 260.5311 14.42215631518372
SKYSAT-C4               
1 41771U 16058B   26166.00585247  .00015333  00000+0  28951-3 0  9994
2 41771  96.9169 187.8695 0001230 129.0648 231.0713 15.48527321545135
SKYSAT-C5               
1 41772U 16058C   26166.08235064  .00007011  00000+0  21239-3 0  9998
2 41772  97.0468 206.8165 0001271 332.0024  28.1151 15.34444981543429
SKYSAT-C2               
1 41773U 16058D   26165.98817226  .00011467  00000+0  27049-3 0  9998
2 41773  97.0164 188.1658 0004826  75.3073 284.8709 15.42028186544719
SKYSAT-C3               
1 41774U 16058E   26166.08080402  .00020941  00000+0  34346-3 0  9994
2 41774  96.8998 197.0087 0001586  91.0062 269.1374 15.52461540545788
ALSAT-1B                
1 41785U 16059C   26166.26924174  .00000632  00000+0  10745-3 0  9992
2 41785  97.7745 175.1155 0007963 227.6117 132.4417 14.72274886520291
PATHFINDER 1            
1 41787U 16059E   26166.22757643  .00000471  00000+0  90627-4 0  9994
2 41787  97.8167 165.5923 0027644 209.9754 149.9870 14.67661044519425
SCATSAT 1               
1 41790U 16059H   26166.18435386  .00000941  00000+0  13048-3 0  9993
2 41790  98.1191 229.9297 0053320 254.1187 105.4143 14.79521638101290
GOKTURK 1A              
1 41875U 16073A   26166.26202166  .00000308  00000+0  69521-4 0  9995
2 41875  98.1261  60.9673 0001441  76.4083 283.7279 14.62773280508543
RESOURCESAT-2A          
1 41877U 16074A   26166.24086192  .00000155  00000+0  90923-4 0  9995
2 41877  98.7533 239.7608 0003335  87.7148 272.4411 14.21616288494027
CARTOSAT-2D             
1 41948U 17008A   26166.24840514  .00004570  00000+0  21954-3 0  9990
2 41948  97.4110 225.5905 0003816 238.1814 121.9050 15.19322282517289
SENTINEL-2B             
1 42063U 17013A   26166.24944856  .00000141  00000+0  70611-4 0  9994
2 42063  98.5698 241.0509 0001176  87.5190 272.6128 14.30816688484366
CARTOSAT-2E             
1 42767U 17036C   26166.26622198  .00003946  00000+0  19050-3 0  9999
2 42767  97.4281 226.1001 0002583 331.0011  29.1079 15.19242550497853
FORMOSAT-5              
1 42920U 17049A   26166.25985599  .00000138  00000+0  45860-4 0  9999
2 42920  98.2254 241.6123 0012697  89.6891 270.5759 14.50898223466399
SENTINEL-5P             
1 42969U 17064A   26166.29875871  .00000038  00000+0  39251-4 0  9990
2 42969  98.7925 108.4434 0000962  83.9500 276.1786 14.19518700449299
SKYSAT-C11              
1 42987U 17068A   26166.32298740  .00023426  00000+0  31601-3 0  9998
2 42987  97.4347 315.0725 0000709  84.5767 275.5569 15.57808325482953
SKYSAT-C10              
1 42988U 17068B   26165.94498286  .00008332  00000+0  25088-3 0  9994
2 42988  97.4504 302.7699 0001149  93.8449 266.2926 15.34605921482014
SKYSAT-C9               
1 42989U 17068C   26166.29158829  .00010364  00000+0  24875-3 0  9991
2 42989  97.4425 304.0364 0009334 138.9580 221.2370 15.41520314482465
SKYSAT-C8               
1 42990U 17068D   26166.18016693  .00008769  00000+0  24502-3 0  9996
2 42990  97.4521 302.7996 0001474  97.3345 262.8067 15.36941663482006
SKYSAT-C7               
1 42991U 17068E   26166.17371994  .00008584  00000+0  24012-3 0  9995
2 42991  97.4532 303.7822 0007200 112.3956 247.8052 15.36891332482067
SKYSAT-C6               
1 42992U 17068F   26166.32052459  .00007772  00000+0  23730-3 0  9999
2 42992  97.4566 303.9077 0004350 142.4657 217.6890 15.34182223482036
CARTOSAT-2F             
1 43111U 18004A   26166.29835140  .00004133  00000+0  19962-3 0  9996
2 43111  97.4794 225.9511 0000584 226.6650 133.4536 15.19203979467043
GAOFEN-1 02             
1 43259U 18031A   26166.26537346  .00000711  00000+0  10955-3 0  9994
2 43259  98.0532 228.7977 0003925  38.7794 321.3697 14.76454266442412
GAOFEN-1 03             
1 43260U 18031B   26166.31130818  .00000620  00000+0  96452-4 0  9991
2 43260  98.0523 228.7023 0003777  82.9177 277.2462 14.76466580442418
GAOFEN-1 04             
1 43262U 18031D   26166.28698366  .00000965  00000+0  14607-3 0  9999
2 43262  98.0534 228.8683 0002257  84.1570 275.9897 14.76478402442400
SENTINEL-3B             
1 43437U 18039A   26166.15593834  .00000073  00000+0  48395-4 0  9993
2 43437  98.6250 233.7173 0000733  85.7408 274.3856 14.26734175423839
GAOFEN-5 01             
1 43461U 18043A   26165.93806828  .00000277  00000+0  67153-4 0  9999
2 43461  98.4568 137.4771 0003028  87.2724 272.8822 14.60604013431366
GAOFEN-6                
1 43484U 18048A   26166.24151095  .00000292  00000+0  48902-4 0  9991
2 43484  97.8551 229.0368 0011678 173.6930 186.4429 14.76595631433104
